[{"OBJECT_NAME":"STARLINK-32303","OBJECT_ID":"2024-207A","EPOCH":"2026-03-09T22:59:18.443040","MEAN_MOTION":15.2760047,"ECCENTRICITY":3.743e-5,"INCLINATION":42.9966,"RA_OF_ASC_NODE":280.1797,"ARG_OF_PERICENTER":233.7502,"MEAN_ANOMALY":126.3315,"EPHEMERIS_TYPE":0,"CLASSIFICATION_TYPE":"U","NORAD_CAT_ID":61912,"ELEMENT_SET_NO":999,"REV_AT_EPOCH":7535,"BSTAR":0.0014940722,"MEAN_MOTION_DOT":0.00041107,"MEAN_MOTION_DDOT":0},{"OBJECT_NAME":"FLOCK 4G-25","OBJECT_ID":"2025-009AP","EPOCH":"2026-03-09T17:53:50.680608","MEAN_MOTION":15.27424196,"ECCENTRICITY":8.276e-5,"INCLINATION":97.4049,"RA_OF_ASC_NODE":151.4141,"ARG_OF_PERICENTER":316.3151,"MEAN_ANOMALY":43.8023,"EPHEMERIS_TYPE":0,"CLASSIFICATION_TYPE":"U","NORAD_CAT_ID":62646,"ELEMENT_SET_NO":999,"REV_AT_EPOCH":6373,"BSTAR":0.00038902475,"MEAN_MOTION_DOT":0.00010373,"MEAN_MOTION_DDOT":0}]
